NORAD_CAT_ID,OBJECT_NAME,OBJECT_TYPE,EPOCH,MEAN_MOTION,ECCENTRICITY,INCLINATION,RA_OF_ASC_NODE,ARG_OF_PERICENTER,MEAN_ANOMALY,BSTAR,MEAN_MOTION_DOT,MEAN_MOTION_DDOT,TLE_LINE0,TLE_LINE1,TLE_LINE2,SEMIMAJOR_AXIS,PERIOD,APOGEE,PERIGEE,DECAYED
51804.0,STARLINK-3601,PAYLOAD,2023-05-14 18:53:49,15.08839864,0.0001185,53.218,272.5268,99.8599,260.2527,3.1152e-05,2.08e-06,0.0,0 STARLINK-3601,1 51804U 22017AN  23134.78737348  .00000208  00000-0  31152-4 0  9996,2 51804  53.2180 272.5268 0001185  99.8599 260.2527 15.08839864 68779,6917.881,95.438,540.566,538.926,0.0
51804.0,STARLINK-3601,PAYLOAD,2023-05-15 12:23:05,15.08760129,0.0001158,53.2177,269.2555,134.5846,225.5241,0.0011564,0.00018124,0.0,0 STARLINK-3601,1 51804U 22017AN  23135.51603957  .00018124  00000-0  11564-2 0  9995,2 51804  53.2177 269.2555 0001158 134.5846 225.5241 15.08760129 68784,6918.125,95.443,540.791,539.188,0.0
51804.0,STARLINK-3601,PAYLOAD,2023-05-15 15:33:49,15.08838275,9.73e-05,53.2169,268.662,98.2418,261.8685,4.5877e-05,4.42e-06,0.0,0 STARLINK-3601,1 51804U 22017AN  23135.64849470  .00000442  00000-0  45877-4 0  9991,2 51804  53.2169 268.6620 0000973  98.2418 261.8685 15.08838275 68802,6917.886,95.438,540.424,539.078,0.0
51804.0,STARLINK-3601,PAYLOAD,2023-05-16 12:13:50,15.08861648,0.0001387,53.217,264.7966,89.6853,270.4298,-0.00031157,-5.246e-05,0.0,0 STARLINK-3601,1 51804U 22017AN  23136.50961055 -.00005246  00000-0 -31157-3 0  9995,2 51804  53.2170 264.7966 0001387  89.6853 270.4298 15.08861648 68931,6917.814,95.436,540.639,538.72,0.0
51804.0,STARLINK-3601,PAYLOAD,2023-05-16 17:00:00,15.08841746,9.98e-05,53.2168,263.9055,96.2952,263.8154,4.854e-05,4.85e-06,0.0,0 STARLINK-3601,1 51804U 22017AN  23136.70833494  .00000485  00000-0  48540-4 0  9995,2 51804  53.2168 263.9055 0000998  96.2952 263.8154 15.08841746 69068,6917.875,95.437,540.43,539.05,0.0
51804.0,STARLINK-3601,PAYLOAD,2023-05-17 08:53:52,15.08833162,0.0001063,53.2158,260.9343,87.033,273.0783,1.0267e-06,-2.71e-06,0.0,0 STARLINK-3601,1 51804U 22017AN  23137.37074340 -.00000271  00000-0  10267-5 0  9996,2 51804  53.2158 260.9343 0001063  87.0330 273.0783 15.08833162 69161,6917.901,95.438,540.502,539.031,0.0
51804.0,STARLINK-3601,PAYLOAD,2023-05-17 15:15:24,15.08820442,0.0001205,53.2156,259.7448,96.8672,263.2457,0.00027708,4.122e-05,0.0,0 STARLINK-3601,1 51804U 22017AN  23137.63570216  .00004122  00000-0  27708-3 0  9992,2 51804  53.2156 259.7448 0001205  96.8672 263.2457 15.08820442 69106,6917.94,95.439,540.639,538.972,0.0
51804.0,STARLINK-3601,PAYLOAD,2023-05-18 00:47:43,15.08838183,9.6e-05,53.2159,257.9615,85.6962,274.414,4.7576e-05,4.69e-06,0.0,0 STARLINK-3601,1 51804U 22017AN  23138.03313940  .00000469  00000-0  47576-4 0  9992,2 51804  53.2159 257.9615 0000960  85.6962 274.4140 15.08838183 69261,6917.886,95.438,540.415,539.087,0.0
51804.0,STARLINK-3601,PAYLOAD,2023-05-18 13:30:48,15.08836134,0.0001032,53.2165,255.5815,81.7386,278.3723,-3.3074e-06,-3.4e-06,0.0,0 STARLINK-3601,1 51804U 22017AN  23138.56306402 -.00000340  00000-0 -33074-5 0  9994,2 51804  53.2165 255.5815 0001032  81.7386 278.3723 15.08836134 69244,6917.892,95.438,540.471,539.043,0.0
51804.0,STARLINK-3601,PAYLOAD,2023-05-19 16:32:21,15.08845045,0.0001181,53.2156,250.5256,87.277,272.8358,8.2771e-05,1.03e-05,0.0,0 STARLINK-3601,1 51804U 22017AN  23139.68913701  .00001030  00000-0  82771-4 0  9996,2 51804  53.2156 250.5256 0001181  87.2770 272.8358 15.08845045 69515,6917.865,95.437,540.547,538.913,0.0
51804.0,STARLINK-3601,PAYLOAD,2023-05-20 06:50:50,15.08832665,0.0001022,53.2163,247.8497,79.8361,280.2746,0.00015451,2.172e-05,0.0,0 STARLINK-3601,1 51804U 22017AN  23140.28530251  .00002172  00000-0  15451-3 0  9997,2 51804  53.2163 247.8497 0001022  79.8361 280.2746 15.08832665 69604,6917.903,95.438,540.475,539.061,0.0
51804.0,STARLINK-3601,PAYLOAD,2023-05-20 14:47:44,15.08851399,0.0001143,53.2168,246.3621,72.395,287.7167,0.00018845,2.714e-05,0.0,0 STARLINK-3601,1 51804U 22017AN  23140.61649008  .00002714  00000-0  18845-3 0  9997,2 51804  53.2168 246.3621 0001143  72.3950 287.7167 15.08851399 69657,6917.846,95.437,540.501,538.92,0.0
51804.0,STARLINK-3601,PAYLOAD,2023-05-21 00:20:03,15.08845879,0.0001041,53.2172,244.5774,84.6755,275.4356,7.7794e-05,9.51e-06,0.0,0 STARLINK-3601,1 51804U 22017AN  23141.01393423  .00000951  00000-0  77794-4 0  9999,2 51804  53.2172 244.5774 0001041  84.6755 275.4356 15.08845879 69714,6917.862,95.437,540.448,539.007,0.0
51804.0,STARLINK-3601,PAYLOAD,2023-05-21 11:27:46,15.08840751,9.16e-05,53.2167,242.4964,108.4412,251.6679,1.6089e-05,-3.2e-07,0.0,0 STARLINK-3601,1 51804U 22017AN  23141.47761825 -.00000032  00000-0  16089-4 0  9995,2 51804  53.2167 242.4964 0000916 108.4412 251.6679 15.08840751 69685,6917.878,95.438,540.377,539.109,0.0
51804.0,STARLINK-3601,PAYLOAD,2023-05-21 13:03:09,15.08845534,0.0001046,53.2164,242.1983,109.616,250.4945,-1.4609e-05,-5.2e-06,0.0,0 STARLINK-3601,1 51804U 22017AN  23141.54385637 -.00000520  00000-0 -14609-4 0  9995,2 51804  53.2164 242.1983 0001046 109.6160 250.4945 15.08845534 69696,6917.863,95.437,540.452,539.005,0.0
51804.0,STARLINK-3601,PAYLOAD,2023-05-22 00:10:51,15.08839943,0.0001043,53.2163,240.1195,82.9217,277.1894,3.4453e-05,2.61e-06,0.0,0 STARLINK-3601,1 51804U 22017AN  23142.00753865  .00000261  00000-0  34453-4 0  9998,2 51804  53.2163 240.1195 0001043  82.9217 277.1894 15.08839943 69866,6917.881,95.438,540.467,539.024,0.0
51804.0,STARLINK-3601,PAYLOAD,2023-05-22 12:53:56,15.08840676,0.0001171,53.2163,237.7388,97.1847,262.9278,2.796e-05,1.57e-06,0.0,0 STARLINK-3601,1 51804U 22017AN  23142.53745902  .00000157  00000-0  27960-4 0  9998,2 51804  53.2163 237.7388 0001171  97.1847 262.9278 15.08840676 69842,6917.878,95.438,540.553,538.933,0.0
51804.0,STARLINK-3601,PAYLOAD,2023-05-23 11:09:20,15.0883156,0.0001033,53.2161,233.5758,103.1092,257.0016,9.3268e-05,1.197e-05,0.0,0 STARLINK-3601,1 51804U 22017AN  23143.46482348  .00001197  00000-0  93268-4 0  9992,2 51804  53.2161 233.5758 0001033 103.1092 257.0016 15.08831560 70087,6917.906,95.438,540.486,539.057,0.0
51804.0,STARLINK-3601,PAYLOAD,2023-05-24 06:13:58,15.08826352,0.0001144,53.2164,230.0069,106.622,253.4898,0.0001712,2.437e-05,0.0,0 STARLINK-3601,1 51804U 22017AN  23144.25970716  .00002437  00000-0  17120-3 0  9991,2 51804  53.2164 230.0069 0001144 106.6220 253.4898 15.08826352 70105,6917.922,95.438,540.579,538.996,0.0
51804.0,STARLINK-3601,PAYLOAD,2023-05-26 10:41:42,15.08837219,0.0001236,53.217,220.196,103.5937,256.5193,2.7524e-05,1.5e-06,0.0,0 STARLINK-3601,1 51804U 22017AN  23146.44562879  .00000150  00000-0  27524-4 0  9991,2 51804  53.2170 220.1960 0001236 103.5937 256.5193 15.08837219 70538,6917.889,95.438,540.609,538.899,0.0
51804.0,STARLINK-3601,PAYLOAD,2023-05-26 13:52:28,15.08837587,0.0001193,53.2168,219.601,97.5774,262.5353,2.7398e-05,1.48e-06,0.0,0 STARLINK-3601,1 51804U 22017AN  23146.57810888  .00000148  00000-0  27398-4 0  9997,2 51804  53.2168 219.6010 0001193  97.5774 262.5353 15.08837587 70451,6917.888,95.438,540.578,538.927,0.0
51804.0,STARLINK-3601,PAYLOAD,2023-05-27 12:07:52,15.08838491,0.0001134,53.2163,215.4368,89.5466,270.5656,3.8681e-05,3.28e-06,0.0,0 STARLINK-3601,1 51804U 22017AN  23147.50546913  .00000328  00000-0  38681-4 0  9993,2 51804  53.2163 215.4368 0001134  89.5466 270.5656 15.08838491 70696,6917.885,95.438,540.534,538.966,0.0
51804.0,STARLINK-3601,PAYLOAD,2023-05-27 21:40:11,15.08838876,0.0001148,53.2162,213.6528,85.4806,274.6317,5.1958e-05,5.39e-06,0.0,0 STARLINK-3601,1 51804U 22017AN  23147.90290881  .00000539  00000-0  51958-4 0  9993,2 51804  53.2162 213.6528 0001148  85.4806 274.6317 15.08838876 70653,6917.884,95.438,540.543,538.955,0.0
51804.0,STARLINK-3601,PAYLOAD,2023-05-28 13:34:02,15.08845396,0.0001157,53.2161,210.679,85.1234,274.989,8.1982e-05,1.017e-05,0.0,0 STARLINK-3601,1 51804U 22017AN  23148.56530352  .00001017  00000-0  81982-4 0  9998,2 51804  53.2161 210.6790 0001157  85.1234 274.9890 15.08845396 70858,6917.864,95.437,540.529,538.928,0.0
51804.0,STARLINK-3601,PAYLOAD,2023-05-28 21:30:58,15.08842564,0.0001156,53.2159,209.1921,84.8357,275.2767,5.5077e-05,5.89e-06,0.0,0 STARLINK-3601,1 51804U 22017AN  23148.89650535  .00000589  00000-0  55077-4 0  9999,2 51804  53.2159 209.1921 0001156  84.8357 275.2767 15.08842564 70801,6917.873,95.437,540.537,538.938,0.0
51804.0,STARLINK-3601,PAYLOAD,2023-05-29 10:14:03,15.08842027,0.0001178,53.2158,206.8133,84.1319,275.9807,6.2744e-05,7.11e-06,0.0,0 STARLINK-3601,1 51804U 22017AN  23149.42642466  .00000711  00000-0  62744-4 0  9999,2 51804  53.2158 206.8133 0001178  84.1319 275.9807 15.08842027 70888,6917.874,95.437,540.554,538.924,0.0
51804.0,STARLINK-3601,PAYLOAD,2023-05-29 21:21:45,15.08841042,0.0001179,53.2157,204.7318,83.2298,276.8828,2.6773e-05,1.38e-06,0.0,0 STARLINK-3601,1 51804U 22017AN  23149.89010550  .00000138  00000-0  26773-4 0  9998,2 51804  53.2157 204.7318 0001179  83.2298 276.8828 15.08841042 70953,6917.877,95.437,540.558,538.927,0.0
51804.0,STARLINK-3601,PAYLOAD,2023-05-30 08:29:27,15.08835708,0.000125,53.2156,202.6506,82.8125,277.301,-3.9322e-05,-9.14e-06,0.0,0 STARLINK-3601,1 51804U 22017AN  23150.35379126 -.00000914  00000-0 -39322-4 0  9996,2 51804  53.2156 202.6506 0001250  82.8125 277.3010 15.08835708 71123,6917.894,95.438,540.623,538.894,0.0
51804.0,STARLINK-3601,PAYLOAD,2023-05-30 13:15:36,15.08838167,0.0001204,53.2154,201.7575,88.0805,272.0325,-3.3322e-05,-8.18e-06,0.0,0 STARLINK-3601,1 51804U 22017AN  23150.55250929 -.00000818  00000-0 -33322-4 0  9994,2 51804  53.2154 201.7575 0001204  88.0805 272.0325 15.08838167 71054,6917.886,95.438,540.584,538.918,0.0
51804.0,STARLINK-3601,PAYLOAD,2023-05-31 09:55:37,15.08840054,0.0001173,53.2154,197.8918,93.1359,266.9767,1.5949e-05,-3.4e-07,0.0,0 STARLINK-3601,1 51804U 22017AN  23151.41362637 -.00000034  00000-0  15949-4 0  9994,2 51804  53.2154 197.8918 0001173  93.1359 266.9767 15.08840054 71281,6917.88,95.438,540.557,538.934,0.0
